[{"OBJECT_NAME":"ONEWEB-0082","OBJECT_ID":"2020-020AE","EPOCH":"2026-01-01T04:00:26.171712","MEAN_MOTION":13.11417053,"ECCENTRICITY":0.00019341,"INCLINATION":87.8851,"RA_OF_ASC_NODE":54.2987,"ARG_OF_PERICENTER":93.3022,"MEAN_ANOMALY":266.8327,"EPHEMERIS_TYPE":0,"CLASSIFICATION_TYPE":"U","NORAD_CAT_ID":45452,"ELEMENT_SET_NO":999,"REV_AT_EPOCH":28078,"BSTAR":-0.0012432879,"MEAN_MOTION_DOT":-4.28e-6,"MEAN_MOTION_DDOT":0},{"OBJECT_NAME":"ONEWEB-0050","OBJECT_ID":"2020-020AF","EPOCH":"2026-01-01T06:08:21.226272","MEAN_MOTION":14.89672023,"ECCENTRICITY":0.00029674,"INCLINATION":88.9232,"RA_OF_ASC_NODE":255.9813,"ARG_OF_PERICENTER":151.4594,"MEAN_ANOMALY":208.6797,"EPHEMERIS_TYPE":0,"CLASSIFICATION_TYPE":"U","NORAD_CAT_ID":45453,"ELEMENT_SET_NO":999,"REV_AT_EPOCH":31552,"BSTAR":-0.00045922907,"MEAN_MOTION_DOT":-4.36e-5,"MEAN_MOTION_DDOT":0},{"OBJECT_NAME":"ONEWEB-0034","OBJECT_ID":"2020-020AG","EPOCH":"2026-01-01T04:30:57.643488","MEAN_MOTION":13.11419016,"ECCENTRICITY":0.00017768,"INCLINATION":87.8845,"RA_OF_ASC_NODE":54.3062,"ARG_OF_PERICENTER":99.1475,"MEAN_ANOMALY":260.9854,"EPHEMERIS_TYPE":0,"CLASSIFICATION_TYPE":"U","NORAD_CAT_ID":45454,"ELEMENT_SET_NO":999,"REV_AT_EPOCH":28070,"BSTAR":0.00041118874,"MEAN_MOTION_DOT":1.58e-6,"MEAN_MOTION_DDOT":0},{"OBJECT_NAME":"ONEWEB-0060","OBJECT_ID":"2020-020AH","EPOCH":"2026-01-01T03:49:27.639552","MEAN_MOTION":13.11404613,"ECCENTRICITY":0.00024783,"INCLINATION":87.8828,"RA_OF_ASC_NODE":54.3274,"ARG_OF_PERICENTER":76.9092,"MEAN_ANOMALY":283.2313,"EPHEMERIS_TYPE":0,"CLASSIFICATION_TYPE":"U","NORAD_CAT_ID":45455,"ELEMENT_SET_NO":999,"REV_AT_EPOCH":28065,"BSTAR":-0.0040579319,"MEAN_MOTION_DOT":-1.425e-5,"MEAN_MOTION_DDOT":0},{"OBJECT_NAME":"ONEWEB-0086","OBJECT_ID":"2020-020AJ","EPOCH":"2026-01-01T03:18:57.049920","MEAN_MOTION":13.11415035,"ECCENTRICITY":0.00017064,"INCLINATION":87.8837,"RA_OF_ASC_NODE":54.313,"ARG_OF_PERICENTER":73.8201,"MEAN_ANOMALY":286.3115,"EPHEMERIS_TYPE":0,"CLASSIFICATION_TYPE":"U","NORAD_CAT_ID":45456,"ELEMENT_SET_NO":999,"REV_AT_EPOCH":28071,"BSTAR":0.0012827722,"MEAN_MOTION_DOT":4.67e-6,"MEAN_MOTION_DDOT":0},{"OBJECT_NAME":"ONEWEB-0088","OBJECT_ID":"2020-020AK","EPOCH":"2026-01-01T04:37:05.239200","MEAN_MOTION":13.11419714,"ECCENTRICITY":0.00020075,"INCLINATION":87.8856,"RA_OF_ASC_NODE":54.2599,"ARG_OF_PERICENTER":103.7714,"MEAN_ANOMALY":256.3638,"EPHEMERIS_TYPE":0,"CLASSIFICATION_TYPE":"U","NORAD_CAT_ID":45457,"ELEMENT_SET_NO":999,"REV_AT_EPOCH":28065,"BSTAR":0.00085528313,"MEAN_MOTION_DOT":3.16e-6,"MEAN_MOTION_DDOT":0},{"OBJECT_NAME":"ONEWEB-0102","OBJECT_ID":"2020-100A","EPOCH":"2026-01-01T02:21:34.419456","MEAN_MOTION":13.12444223,"ECCENTRICITY":0.00016221,"INCLINATION":87.892,"RA_OF_ASC_NODE":23.8689,"ARG_OF_PERICENTER":91.8372,"MEAN_ANOMALY":268.2942,"EPHEMERIS_TYPE":0,"CLASSIFICATION_TYPE":"U","NORAD_CAT_ID":47258,"ELEMENT_SET_NO":999,"REV_AT_EPOCH":24281,"BSTAR":-0.00036503853,"MEAN_MOTION_DOT":-1.19e-6,"MEAN_MOTION_DDOT":0},{"OBJECT_NAME":"ONEWEB-0109","OBJECT_ID":"2020-100B","EPOCH":"2026-01-01T02:33:47.917440","MEAN_MOTION":13.12443529,"ECCENTRICITY":0.00015958,"INCLINATION":87.8924,"RA_OF_ASC_NODE":23.8369,"ARG_OF_PERICENTER":91.9146,"MEAN_ANOMALY":268.2165,"EPHEMERIS_TYPE":0,"CLASSIFICATION_TYPE":"U","NORAD_CAT_ID":47259,"ELEMENT_SET_NO":999,"REV_AT_EPOCH":24264,"BSTAR":0.0003458831,"MEAN_MOTION_DOT":1.37e-6,"MEAN_MOTION_DDOT":0},{"OBJECT_NAME":"ONEWEB-0110","OBJECT_ID":"2020-100C","EPOCH":"2026-01-01T03:12:50.849568","MEAN_MOTION":13.12442216,"ECCENTRICITY":0.00017569,"INCLINATION":87.8925,"RA_OF_ASC_NODE":23.816,"ARG_OF_PERICENTER":83.3851,"MEAN_ANOMALY":276.7478,"EPHEMERIS_TYPE":0,"CLASSIFICATION_TYPE":"U","NORAD_CAT_ID":47260,"ELEMENT_SET_NO":999,"REV_AT_EPOCH":24281,"BSTAR":0.0010465548,"MEAN_MOTION_DOT":3.89e-6,"MEAN_MOTION_DDOT":0},{"OBJECT_NAME":"ONEWEB-0111","OBJECT_ID":"2020-100D","EPOCH":"2026-01-01T02:06:57.680640","MEAN_MOTION":13.12452488,"ECCENTRICITY":0.00019265,"INCLINATION":87.8927,"RA_OF_ASC_NODE":23.8437,"ARG_OF_PERICENTER":90.542,"MEAN_ANOMALY":269.5929,"EPHEMERIS_TYPE":0,"CLASSIFICATION_TYPE":"U","NORAD_CAT_ID":47261,"ELEMENT_SET_NO":999,"REV_AT_EPOCH":24264,"BSTAR":-0.00090568262,"MEAN_MOTION_DOT":-3.13e-6,"MEAN_MOTION_DDOT":0},{"OBJECT_NAME":"ONEWEB-0114","OBJECT_ID":"2020-100E","EPOCH":"2026-01-01T02:50:53.106144","MEAN_MOTION":13.12443127,"ECCENTRICITY":0.00014939,"INCLINATION":87.8929,"RA_OF_ASC_NODE":23.8322,"ARG_OF_PERICENTER":102.364,"MEAN_ANOMALY":257.7655,"EPHEMERIS_TYPE":0,"CLASSIFICATION_TYPE":"U","NORAD_CAT_ID":47262,"ELEMENT_SET_NO":999,"REV_AT_EPOCH":24260,"BSTAR":0.0011765619,"MEAN_MOTION_DOT":4.36e-6,"MEAN_MOTION_DDOT":0},{"OBJECT_NAME":"ONEWEB-0117","OBJECT_ID":"2020-100F","EPOCH":"2026-01-01T02:38:40.927488","MEAN_MOTION":13.12442868,"ECCENTRICITY":0.00017117,"INCLINATION":87.8924,"RA_OF_ASC_NODE":23.83,"ARG_OF_PERICENTER":90.1944,"MEAN_ANOMALY":269.938,"EPHEMERIS_TYPE":0,"CLASSIFICATION_TYPE":"U","NORAD_CAT_ID":47263,"ELEMENT_SET_NO":999,"REV_AT_EPOCH":24261,"BSTAR":0.00064820931,"MEAN_MOTION_DOT":2.46e-6,"MEAN_MOTION_DDOT":0},{"OBJECT_NAME":"ONEWEB-0118","OBJECT_ID":"2020-100G","EPOCH":"2026-01-01T03:27:29.187648","MEAN_MOTION":13.12440073,"ECCENTRICITY":0.00017447,"INCLINATION":87.8926,"RA_OF_ASC_NODE":23.8234,"ARG_OF_PERICENTER":106.3332,"MEAN_ANOMALY":253.7988,"EPHEMERIS_TYPE":0,"CLASSIFICATION_TYPE":"U","NORAD_CAT_ID":47264,"ELEMENT_SET_NO":999,"REV_AT_EPOCH":24281,"BSTAR":-2.3233089e-5,"MEAN_MOTION_DOT":4.0e-8,"MEAN_MOTION_DDOT":0},{"OBJECT_NAME":"ONEWEB-0119","OBJECT_ID":"2020-100H","EPOCH":"2026-01-01T02:14:15.676800","MEAN_MOTION":13.12437301,"ECCENTRICITY":0.00016365,"INCLINATION":87.8919,"RA_OF_ASC_NODE":23.8664,"ARG_OF_PERICENTER":91.0542,"MEAN_ANOMALY":269.0774,"EPHEMERIS_TYPE":0,"CLASSIFICATION_TYPE":"U","NORAD_CAT_ID":47265,"ELEMENT_SET_NO":999,"REV_AT_EPOCH":24278,"BSTAR":-0.0027780299,"MEAN_MOTION_DOT":-9.86e-6,"MEAN_MOTION_DDOT":0},{"OBJECT_NAME":"ONEWEB-0120","OBJECT_ID":"2020-100J","EPOCH":"2026-01-01T02:48:38.118240","MEAN_MOTION":13.12442038,"ECCENTRICITY":0.00016741,"INCLINATION":87.8914,"RA_OF_ASC_NODE":23.8625,"ARG_OF_PERICENTER":93.978,"MEAN_ANOMALY":266.154,"EPHEMERIS_TYPE":0,"CLASSIFICATION_TYPE":"U","NORAD_CAT_ID":47266,"ELEMENT_SET_NO":999,"REV_AT_EPOCH":24281,"BSTAR":0.0011404403,"MEAN_MOTION_DOT":4.23e-6,"MEAN_MOTION_DDOT":0},{"OBJECT_NAME":"ONEWEB-0121","OBJECT_ID":"2020-100K","EPOCH":"2026-01-01T02:31:20.600256","MEAN_MOTION":13.12443685,"ECCENTRICITY":0.00017881,"INCLINATION":87.8925,"RA_OF_ASC_NODE":23.8349,"ARG_OF_PERICENTER":85.4942,"MEAN_ANOMALY":274.6391,"EPHEMERIS_TYPE":0,"CLASSIFICATION_TYPE":"U","NORAD_CAT_ID":47267,"ELEMENT_SET_NO":999,"REV_AT_EPOCH":24272,"BSTAR":0.00013562136,"MEAN_MOTION_DOT":6.2e-7,"MEAN_MOTION_DDOT":0}]
