ONEWEB-0082             
1 45452U 20020AE  26001.16696958 -.00000428  00000+0 -12433-2 0  9993
2 45452  87.8851  54.2987 0001934  93.3022 266.8327 13.11417053280785
ONEWEB-0050             
1 45453U 20020AF  26001.25580123 -.00004360  00000+0 -45923-3 0  9990
2 45453  88.9232 255.9813 0002967 151.4594 208.6797 14.89672023315528
ONEWEB-0034             
1 45454U 20020AG  26001.18816717  .00000158  00000+0  41119-3 0  9996
2 45454  87.8845  54.3062 0001776  99.1475 260.9854 13.11419016280708
ONEWEB-0060             
1 45455U 20020AH  26001.15934768 -.00001425  00000+0 -40579-2 0  9999
2 45455  87.8828  54.3274 0002478  76.9092 283.2313 13.11404613280652
ONEWEB-0086             
1 45456U 20020AJ  26001.13816030  .00000467  00000+0  12828-2 0  9998
2 45456  87.8837  54.3130 0001706  73.8201 286.3115 13.11415035280716
ONEWEB-0088             
1 45457U 20020AK  26001.19242175  .00000316  00000+0  85528-3 0  9999
2 45457  87.8856  54.2599 0002007 103.7714 256.3638 13.11419714280651
ONEWEB-0102             
1 47258U 20100A   26001.09831504 -.00000119  00000+0 -36504-3 0  9991
2 47258  87.8920  23.8689 0001622  91.8372 268.2942 13.12444223242815
ONEWEB-0109             
1 47259U 20100B   26001.10680460  .00000137  00000+0  34588-3 0  9995
2 47259  87.8924  23.8369 0001595  91.9146 268.2165 13.12443529242640
ONEWEB-0110             
1 47260U 20100C   26001.13392187  .00000389  00000+0  10466-2 0  9993
2 47260  87.8925  23.8160 0001756  83.3851 276.7478 13.12442216242811
ONEWEB-0111             
1 47261U 20100D   26001.08816760 -.00000313  00000+0 -90568-3 0  9997
2 47261  87.8927  23.8437 0001926  90.5420 269.5929 13.12452488242646
ONEWEB-0114             
1 47262U 20100E   26001.11867021  .00000436  00000+0  11766-2 0  9994
2 47262  87.8929  23.8322 0001493 102.3640 257.7655 13.12443127242608
ONEWEB-0117             
1 47263U 20100F   26001.11019592  .00000246  00000+0  64821-3 0  9997
2 47263  87.8924  23.8300 0001711  90.1944 269.9380 13.12442868242616
ONEWEB-0118             
1 47264U 20100G   26001.14408782  .00000004  00000+0 -23233-4 0  9990
2 47264  87.8926  23.8234 0001744 106.3332 253.7988 13.12440073242815
ONEWEB-0119             
1 47265U 20100H   26001.09323700 -.00000986  00000+0 -27780-2 0  9990
2 47265  87.8919  23.8664 0001636  91.0542 269.0774 13.12437301242787
ONEWEB-0120             
1 47266U 20100J   26001.11710785  .00000423  00000+0  11404-2 0  9997
2 47266  87.8914  23.8625 0001674  93.9780 266.1540 13.12442038242813
ONEWEB-0121             
1 47267U 20100K   26001.10509954  .00000062  00000+0  13562-3 0  9998
2 47267  87.8925  23.8349 0001788  85.4942 274.6391 13.12443685242728
